[{"OBJECT_NAME":"STARLINK-5013","OBJECT_ID":"2023-015AV","EPOCH":"2026-03-09T22:00:01.999584","MEAN_MOTION":15.111897,"ECCENTRICITY":0.00014324,"INCLINATION":42.9998,"RA_OF_ASC_NODE":337.2411,"ARG_OF_PERICENTER":265.0781,"MEAN_ANOMALY":110.1108,"EPHEMERIS_TYPE":0,"CLASSIFICATION_TYPE":"U","NORAD_CAT_ID":55492,"ELEMENT_SET_NO":999,"REV_AT_EPOCH":572,"BSTAR":-0.00088768448,"MEAN_MOTION_DOT":-0.00015354,"MEAN_MOTION_DDOT":0},{"OBJECT_NAME":"FENGYUN 1C DEB","OBJECT_ID":"1999-025CMP","EPOCH":"2026-03-08T08:37:00.789888","MEAN_MOTION":14.96815474,"ECCENTRICITY":0.01497126,"INCLINATION":98.9176,"RA_OF_ASC_NODE":115.7276,"ARG_OF_PERICENTER":148.4975,"MEAN_ANOMALY":212.5316,"EPHEMERIS_TYPE":0,"CLASSIFICATION_TYPE":"U","NORAD_CAT_ID":31938,"ELEMENT_SET_NO":999,"REV_AT_EPOCH":409,"BSTAR":0.00073670691,"MEAN_MOTION_DOT":0.00010536,"MEAN_MOTION_DDOT":0}]
